KUIPER-00008            
1 63724U 25088A   25336.51428847 -.00001954  00000+0 -13456-3 0  9995
2 63724  51.8882 169.8953 0010894 137.5272 222.6544 14.99804822 33486
KUIPER-00009            
1 63725U 25088B   25336.50006943  .00017268  00000+0  22842-2 0  9995
2 63725  51.8999 176.3866 0013236 130.6340  17.6281 14.79954932  4221
KUIPER-00010            
1 63726U 25088C   25336.52606926  .00002226  00000+0  31805-3 0  9993
2 63726  51.8997 152.6753 0012322 175.0756 185.0330 14.80328366 33349
KUIPER-00011            
1 63727U 25088D   25336.49028811  .00003424  00000+0  47763-3 0  9992
2 63727  51.8977 160.4717 0014803 149.1855 210.9979 14.79931374 33369
KUIPER-00012            
1 63728U 25088E   25336.50473997  .00001279  00000+0  21129-3 0  9998
2 63728  51.9014 143.5631 0009287 158.2679 201.8678 14.76788430 33551
KUIPER-00013            
1 63729U 25088F   25336.26891686  .00009414  00000+0  12609-2 0  9992
2 63729  51.8989 178.8790 0008743  65.6122 294.5752 14.79959323 33140
KUIPER-00014            
1 63730U 25088G   25336.26717795 -.00000503  00000+0 -36546-4 0  9992
2 63730  51.9010 179.8563 0010119 124.5287 235.6632 14.79947959 32946
KUIPER-00015            
1 63731U 25088H   25336.32118341  .00003337  00000+0  44542-3 0  9992
2 63731  51.8981 190.7499 0011286 114.1442 246.0703 14.81904056 33251
